start=new Date('2023-05-13T00:00:00.000Z').valueOf();
sats=[{"PERIOD":"95.592","SITE":"AFETR","CENTER_NAME":"EARTH","TIME_SYSTEM":"UTC","MEAN_ANOMALY":"208.5519","MEAN_MOTION":"15.06404842","OBJECT_NAME":"STARLINK-1717","APOAPSIS":"549.841","MEAN_MOTION_DOT":"0.00026666","OBJECT_TYPE":"PAYLOAD","RA_OF_ASC_NODE":"210.9559","BSTAR":"0.00180190000000","SEMIMAJOR_AXIS":"6925.334","REF_FRAME":"TEME","INCLINATION":"53.0540","ELEMENT_SET_NO":"999","OBJECT_ID":"2020-073D","ARG_OF_PERICENTER":"151.5679","REV_AT_EPOCH":"14132","LAUNCH_DATE":"2020-10-18","PERIAPSIS":"544.556","DECAY_DATE":null,"MEAN_MOTION_DDOT":"0.0000000000000","EPOCH":"2023-05-12T09:08:55.279968","TLE_LINE1":"1 46673U 20073D   23132.38119537  .00026666  00000-0  18019-2 0  9993","FILE":"3906381","ECCENTRICITY":"0.00038160","GP_ID":"231705477","EPHEMERIS_TYPE":"0","NORAD_CAT_ID":"46673","RCS_SIZE":"LARGE","MEAN_ELEMENT_THEORY":"SGP4","COUNTRY_CODE":"US","TLE_LINE2":"2 46673  53.0540 210.9559 0003816 151.5679 208.5519 15.06404842141323","CLASSIFICATION_TYPE":"U"},{"MEAN_MOTION":"15.06394973","PERIOD":"95.592","SITE":"AFETR","CENTER_NAME":"EARTH","MEAN_ANOMALY":"290.1542","TIME_SYSTEM":"UTC","OBJECT_TYPE":"PAYLOAD","OBJECT_NAME":"STARLINK-1718","APOAPSIS":"548.038","MEAN_MOTION_DOT":"0.00028486","SEMIMAJOR_AXIS":"6925.364","REF_FRAME":"TEME","BSTAR":"0.00192380000000","RA_OF_ASC_NODE":"193.5518","REV_AT_EPOCH":"14209","ARG_OF_PERICENTER":"69.9572","LAUNCH_DATE":"2020-10-18","PERIAPSIS":"546.420","INCLINATION":"53.0520","ELEMENT_SET_NO":"999","OBJECT_ID":"2020-073E","EPOCH":"2023-05-12T21:20:42.402624","DECAY_DATE":null,"MEAN_MOTION_DDOT":"0.0000000000000","FILE":"3906235","ECCENTRICITY":"0.00011680","GP_ID":"231682612","TLE_LINE1":"1 46674U 20073E   23132.88937966  .00028486  00000-0  19238-2 0  9999","EPHEMERIS_TYPE":"0","COUNTRY_CODE":"US","MEAN_ELEMENT_THEORY":"SGP4","TLE_LINE2":"2 46674  53.0520 193.5518 0001168  69.9572 290.1542 15.06394973142096","CLASSIFICATION_TYPE":"U","NORAD_CAT_ID":"46674","RCS_SIZE":"LARGE"},{"MEAN_MOTION":"15.06406832","MEAN_ANOMALY":"253.0142","TIME_SYSTEM":"UTC","SITE":"AFETR","CENTER_NAME":"EARTH","PERIOD":"95.592","OBJECT_TYPE":"PAYLOAD","MEAN_MOTION_DOT":"0.00031181","APOAPSIS":"547.972","OBJECT_NAME":"STARLINK-1720","SEMIMAJOR_AXIS":"6925.328","REF_FRAME":"TEME","BSTAR":"0.00210260000000","RA_OF_ASC_NODE":"193.5677","PERIAPSIS":"546.414","LAUNCH_DATE":"2020-10-18","ARG_OF_PERICENTER":"107.0970","REV_AT_EPOCH":"14209","OBJECT_ID":"2020-073F","INCLINATION":"53.0528","ELEMENT_SET_NO":"999","DECAY_DATE":null,"MEAN_MOTION_DDOT":"0.0000000000000","EPOCH":"2023-05-12T21:15:24.029856","GP_ID":"231680778","ECCENTRICITY":"0.00011250","FILE":"3906155","TLE_LINE1":"1 46675U 20073F   23132.88569479  .00031181  00000-0  21026-2 0  9994","EPHEMERIS_TYPE":"0","CLASSIFICATION_TYPE":"U","TLE_LINE2":"2 46675  53.0528 193.5677 0001125 107.0970 253.0142 15.06406832142092","COUNTRY_CODE":"US","MEAN_ELEMENT_THEORY":"SGP4","RCS_SIZE":"LARGE","NORAD_CAT_ID":"46675"},{"OBJECT_TYPE":"PAYLOAD","MEAN_MOTION_DOT":"0.00026786","APOAPSIS":"548.071","OBJECT_NAME":"STARLINK-1766","MEAN_MOTION":"15.06401683","MEAN_ANOMALY":"276.7845","TIME_SYSTEM":"UTC","CENTER_NAME":"EARTH","SITE":"AFETR","PERIOD":"95.592","PERIAPSIS":"546.346","LAUNCH_DATE":"2020-10-18","REV_AT_EPOCH":"14161","ARG_OF_PERICENTER":"83.3286","OBJECT_ID":"2020-073H","ELEMENT_SET_NO":"999","INCLINATION":"53.0525","REF_FRAME":"TEME","SEMIMAJOR_AXIS":"6925.343","RA_OF_ASC_NODE":"193.5822","BSTAR":"0.00181020000000","GP_ID":"231704728","ECCENTRICITY":"0.00012460","FILE":"3906381","TLE_LINE1":"1 46677U 20073H   23132.88201656  .00026786  00000-0  18102-2 0  9992","EPOCH":"2023-05-12T21:10:06.230784","DECAY_DATE":null,"MEAN_MOTION_DDOT":"0.0000000000000","CLASSIFICATION_TYPE":"U","TLE_LINE2":"2 46677  53.0525 193.5822 0001246  83.3286 276.7845 15.06401683141611","COUNTRY_CODE":"US","MEAN_ELEMENT_THEORY":"SGP4","RCS_SIZE":"LARGE","NORAD_CAT_ID":"46677","EPHEMERIS_TYPE":"0"},{"FILE":"3906381","ECCENTRICITY":"0.00011450","GP_ID":"231704978","TLE_LINE1":"1 46679U 20073K   23132.35675927  .00003119  00000-0  22823-3 0  9993","DECAY_DATE":null,"MEAN_MOTION_DDOT":"0.0000000000000","EPOCH":"2023-05-12T08:33:44.000928","COUNTRY_CODE":"US","MEAN_ELEMENT_THEORY":"SGP4","TLE_LINE2":"2 46679  53.0531 175.9431 0001145 106.7987 253.3128 15.06394804141819","CLASSIFICATION_TYPE":"U","NORAD_CAT_ID":"46679","RCS_SIZE":"LARGE","EPHEMERIS_TYPE":"0","OBJECT_TYPE":"PAYLOAD","OBJECT_NAME":"STARLINK-1773","APOAPSIS":"548.022","MEAN_MOTION_DOT":"0.00003119","MEAN_MOTION":"15.06394804","PERIOD":"95.592","SITE":"AFETR","CENTER_NAME":"EARTH","TIME_SYSTEM":"UTC","MEAN_ANOMALY":"253.3128","ARG_OF_PERICENTER":"106.7987","REV_AT_EPOCH":"14181","LAUNCH_DATE":"2020-10-18","PERIAPSIS":"546.437","ELEMENT_SET_NO":"999","INCLINATION":"53.0531","OBJECT_ID":"2020-073K","REF_FRAME":"TEME","SEMIMAJOR_AXIS":"6925.364","BSTAR":"0.00022823000000","RA_OF_ASC_NODE":"175.9431"},{"SEMIMAJOR_AXIS":"6925.337","REF_FRAME":"TEME","BSTAR":"0.00098065000000","RA_OF_ASC_NODE":"208.8465","REV_AT_EPOCH":"14139","ARG_OF_PERICENTER":"100.5603","LAUNCH_DATE":"2020-10-18","PERIAPSIS":"546.478","ELEMENT_SET_NO":"999","INCLINATION":"53.0541","OBJECT_ID":"2020-073L","MEAN_MOTION":"15.06403712","PERIOD":"95.592","CENTER_NAME":"EARTH","SITE":"AFETR","MEAN_ANOMALY":"259.5504","TIME_SYSTEM":"UTC","OBJECT_TYPE":"PAYLOAD","OBJECT_NAME":"STARLINK-1774","APOAPSIS":"547.927","MEAN_MOTION_DOT":"0.00014357","EPHEMERIS_TYPE":"0","MEAN_ELEMENT_THEORY":"SGP4","COUNTRY_CODE":"US","TLE_LINE2":"2 46680  53.0541 208.8465 0001046 100.5603 259.5504 15.06403712141390","CLASSIFICATION_TYPE":"U","NORAD_CAT_ID":"46680","RCS_SIZE":"LARGE","DECAY_DATE":null,"MEAN_MOTION_DDOT":"0.0000000000000","EPOCH":"2023-05-12T19:45:50.225472","FILE":"3906381","ECCENTRICITY":"0.00010460","GP_ID":"231705724","TLE_LINE1":"1 46680U 20073L   23132.82349798  .00014357  00000-0  98065-3 0  9998"},{"MEAN_ANOMALY":"293.0760","TIME_SYSTEM":"UTC","SITE":"AFETR","CENTER_NAME":"EARTH","PERIOD":"95.591","MEAN_MOTION":"15.06418248","MEAN_MOTION_DOT":"0.00013942","APOAPSIS":"548.057","OBJECT_NAME":"STARLINK-1775","OBJECT_TYPE":"PAYLOAD","RA_OF_ASC_NODE":"212.8450","BSTAR":"0.00095253000000","SEMIMAJOR_AXIS":"6925.293","REF_FRAME":"TEME","OBJECT_ID":"2020-073M","ELEMENT_SET_NO":"999","INCLINATION":"53.0529","PERIAPSIS":"546.258","LAUNCH_DATE":"2020-10-18","REV_AT_EPOCH":"14173","ARG_OF_PERICENTER":"67.0366","EPOCH":"2023-05-11T22:21:20.321280","DECAY_DATE":null,"MEAN_MOTION_DDOT":"0.0000000000000","TLE_LINE1":"1 46681U 20073M   23131.93148520  .00013942  00000-0  95253-3 0  9995","GP_ID":"231645444","ECCENTRICITY":"0.00012990","FILE":"3905744","EPHEMERIS_TYPE":"0","RCS_SIZE":"LARGE","NORAD_CAT_ID":"46681","CLASSIFICATION_TYPE":"U","TLE_LINE2":"2 46681  53.0529 212.8450 0001299  67.0366 293.0760 15.06418248141734","COUNTRY_CODE":"US","MEAN_ELEMENT_THEORY":"SGP4"},{"CENTER_NAME":"EARTH","SITE":"AFETR","PERIOD":"95.593","TIME_SYSTEM":"UTC","MEAN_ANOMALY":"290.5474","MEAN_MOTION":"15.06385331","OBJECT_NAME":"STARLINK-1776","MEAN_MOTION_DOT":"0.00019799","APOAPSIS":"548.047","OBJECT_TYPE":"PAYLOAD","BSTAR":"0.00134490000000","RA_OF_ASC_NODE":"210.9442","REF_FRAME":"TEME","SEMIMAJOR_AXIS":"6925.394","ELEMENT_SET_NO":"999","INCLINATION":"53.0526","OBJECT_ID":"2020-073N","REV_AT_EPOCH":"14132","ARG_OF_PERICENTER":"69.5637","PERIAPSIS":"546.470","LAUNCH_DATE":"2020-10-18","MEAN_MOTION_DDOT":"0.0000000000000","DECAY_DATE":null,"EPOCH":"2023-05-12T08:31:44.974560","TLE_LINE1":"1 46682U 20073N   23132.35538165  .00019799  00000-0  13449-2 0  9993","FILE":"3906381","GP_ID":"231705228","ECCENTRICITY":"0.00011390","EPHEMERIS_TYPE":"0","RCS_SIZE":"LARGE","NORAD_CAT_ID":"46682","TLE_LINE2":"2 46682  53.0526 210.9442 0001139  69.5637 290.5474 15.06385331141328","MEAN_ELEMENT_THEORY":"SGP4","COUNTRY_CODE":"US","CLASSIFICATION_TYPE":"U"},{"SEMIMAJOR_AXIS":"6925.351","REF_FRAME":"TEME","BSTAR":"0.00063576000000","RA_OF_ASC_NODE":"193.9140","REV_AT_EPOCH":"14160","ARG_OF_PERICENTER":"114.6242","PERIAPSIS":"546.377","LAUNCH_DATE":"2020-10-18","ELEMENT_SET_NO":"999","INCLINATION":"53.0534","OBJECT_ID":"2020-073Q","MEAN_MOTION":"15.06399122","SITE":"AFETR","CENTER_NAME":"EARTH","PERIOD":"95.592","MEAN_ANOMALY":"245.4874","TIME_SYSTEM":"UTC","OBJECT_TYPE":"PAYLOAD","OBJECT_NAME":"STARLINK-1780","MEAN_MOTION_DOT":"0.00009201","APOAPSIS":"548.056","EPHEMERIS_TYPE":"0","TLE_LINE2":"2 46684  53.0534 193.9140 0001212 114.6242 245.4874 15.06399122141607","MEAN_ELEMENT_THEORY":"SGP4","COUNTRY_CODE":"US","CLASSIFICATION_TYPE":"U","RCS_SIZE":"LARGE","NORAD_CAT_ID":"46684","MEAN_MOTION_DDOT":"0.0000000000000","DECAY_DATE":null,"EPOCH":"2023-05-12T19:23:56.397696","FILE":"3906381","GP_ID":"231705478","ECCENTRICITY":"0.00012120","TLE_LINE1":"1 46684U 20073Q   23132.80829164  .00009201  00000-0  63576-3 0  9991"},{"OBJECT_NAME":"STARLINK-1781","MEAN_MOTION_DOT":"0.00023434","APOAPSIS":"548.081","OBJECT_TYPE":"PAYLOAD","CENTER_NAME":"EARTH","SITE":"AFETR","PERIOD":"95.589","MEAN_ANOMALY":"279.9999","TIME_SYSTEM":"UTC","MEAN_MOTION":"15.06443424","ELEMENT_SET_NO":"999","INCLINATION":"53.0525","OBJECT_ID":"2020-073R","ARG_OF_PERICENTER":"80.1152","REV_AT_EPOCH":"14126","PERIAPSIS":"546.080","LAUNCH_DATE":"2020-10-18","BSTAR":"0.00158500000000","RA_OF_ASC_NODE":"212.5334","SEMIMAJOR_AXIS":"6925.215","REF_FRAME":"TEME","TLE_LINE1":"1 46685U 20073R   23132.00056713  .00023434  00000-0  15850-2 0  9991","FILE":"3905921","GP_ID":"231667658","ECCENTRICITY":"0.00014450","DECAY_DATE":null,"EPOCH":"2023-05-12T00:00:49.000032","MEAN_MOTION_DDOT":"0.0000000000000","RCS_SIZE":"LARGE","NORAD_CAT_ID":"46685","TLE_LINE2":"2 46685  53.0525 212.5334 0001445  80.1152 279.9999 15.06443424141263","COUNTRY_CODE":"US","MEAN_ELEMENT_THEORY":"SGP4","CLASSIFICATION_TYPE":"U","EPHEMERIS_TYPE":"0"}];
